start=new Date('2022-10-16T00:00:00.000Z').valueOf();
sats=[{"ARG_OF_PERICENTER":"72.1973","MEAN_MOTION_DOT":"0.00003794","SITE":"AFWTR","EPOCH":"2022-10-15T17:27:06.878016","APOAPSIS":"540.606","PERIOD":"95.438","CLASSIFICATION_TYPE":"U","ECCENTRICITY":"0.00012350","FILE":"3615679","MEAN_ANOMALY":"287.9154","RA_OF_ASC_NODE":"150.0145","SEMIMAJOR_AXIS":"6917.887","EPHEMERIS_TYPE":"0","RCS_SIZE":"LARGE","CENTER_NAME":"EARTH","LAUNCH_DATE":"2022-02-25","OBJECT_TYPE":"PAYLOAD","COUNTRY_CODE":"US","PERIAPSIS":"538.897","TIME_SYSTEM":"UTC","TLE_LINE1":"1 51772U 22017E   22288.72716294  .00003794  00000-0  25634-3 0  9990","OBJECT_NAME":"STARLINK-3623","TLE_LINE2":"2 51772  53.2158 150.0145 0001235  72.1973 287.9154 15.08837946 35256","REF_FRAME":"TEME","DECAY_DATE":null,"REV_AT_EPOCH":"3525","ELEMENT_SET_NO":"999","OBJECT_ID":"2022-017E","BSTAR":"0.00025634000000","MEAN_MOTION_DDOT":"0.0000000000000","NORAD_CAT_ID":"51772","GP_ID":"215248360","MEAN_MOTION":"15.08837946","MEAN_ELEMENT_THEORY":"SGP4","INCLINATION":"53.2158"},{"EPOCH":"2022-10-15T19:13:07.196736","SITE":"AFWTR","ARG_OF_PERICENTER":"46.1128","MEAN_MOTION_DOT":"-0.00001734","SEMIMAJOR_AXIS":"6917.880","EPHEMERIS_TYPE":"0","MEAN_ANOMALY":"314.0000","RA_OF_ASC_NODE":"149.6791","FILE":"3615679","PERIOD":"95.438","CLASSIFICATION_TYPE":"U","ECCENTRICITY":"0.00016500","APOAPSIS":"540.886","TLE_LINE2":"2 51773  53.2164 149.6791 0001650  46.1128 314.0000 15.08840248 35272","REF_FRAME":"TEME","DECAY_DATE":null,"REV_AT_EPOCH":"3527","TLE_LINE1":"1 51773U 22017F   22288.80077774 -.00001734  00000-0 -90886-4 0  9999","OBJECT_NAME":"STARLINK-3624","TIME_SYSTEM":"UTC","PERIAPSIS":"538.603","COUNTRY_CODE":"US","OBJECT_TYPE":"PAYLOAD","LAUNCH_DATE":"2022-02-25","CENTER_NAME":"EARTH","RCS_SIZE":"LARGE","INCLINATION":"53.2164","MEAN_ELEMENT_THEORY":"SGP4","GP_ID":"215248610","MEAN_MOTION":"15.08840248","BSTAR":"-0.00009088600000","MEAN_MOTION_DDOT":"0.0000000000000","NORAD_CAT_ID":"51773","OBJECT_ID":"2022-017F","ELEMENT_SET_NO":"999"},{"BSTAR":"0.00001984900000","MEAN_MOTION_DDOT":"0.0000000000000","NORAD_CAT_ID":"51774","ELEMENT_SET_NO":"999","OBJECT_ID":"2022-017G","MEAN_ELEMENT_THEORY":"SGP4","INCLINATION":"53.2162","GP_ID":"215248861","MEAN_MOTION":"15.08850041","LAUNCH_DATE":"2022-02-25","OBJECT_TYPE":"PAYLOAD","RCS_SIZE":"LARGE","CENTER_NAME":"EARTH","OBJECT_NAME":"STARLINK-3629","TLE_LINE1":"1 51774U 22017G   22288.71981108  .00000028  00000-0  19849-4 0  9998","TLE_LINE2":"2 51774  53.2162 150.0448 0001702  47.8766 312.2371 15.08850041 35228","REF_FRAME":"TEME","DECAY_DATE":null,"REV_AT_EPOCH":"3522","COUNTRY_CODE":"US","PERIAPSIS":"538.537","TIME_SYSTEM":"UTC","APOAPSIS":"540.892","PERIOD":"95.437","CLASSIFICATION_TYPE":"U","ECCENTRICITY":"0.00017020","SEMIMAJOR_AXIS":"6917.850","EPHEMERIS_TYPE":"0","FILE":"3615679","MEAN_ANOMALY":"312.2371","RA_OF_ASC_NODE":"150.0448","SITE":"AFWTR","ARG_OF_PERICENTER":"47.8766","MEAN_MOTION_DOT":"0.00000028","EPOCH":"2022-10-15T17:16:31.677312"},{"EPOCH":"2022-10-15T17:32:26.252160","SITE":"AFWTR","MEAN_MOTION_DOT":"0.00000076","ARG_OF_PERICENTER":"40.2009","EPHEMERIS_TYPE":"0","SEMIMAJOR_AXIS":"6917.869","FILE":"3615679","RA_OF_ASC_NODE":"150.0028","MEAN_ANOMALY":"319.9110","APOAPSIS":"540.917","PERIOD":"95.437","CLASSIFICATION_TYPE":"U","ECCENTRICITY":"0.00017110","TLE_LINE1":"1 51775U 22017H   22288.73085940  .00000076  00000-0  22864-4 0  9994","OBJECT_NAME":"STARLINK-3620","REV_AT_EPOCH":"3526","DECAY_DATE":null,"REF_FRAME":"TEME","TLE_LINE2":"2 51775  53.2177 150.0028 0001711  40.2009 319.9110 15.08843833 35266","COUNTRY_CODE":"US","PERIAPSIS":"538.550","TIME_SYSTEM":"UTC","LAUNCH_DATE":"2022-02-25","OBJECT_TYPE":"PAYLOAD","RCS_SIZE":"LARGE","CENTER_NAME":"EARTH","MEAN_ELEMENT_THEORY":"SGP4","INCLINATION":"53.2177","MEAN_MOTION":"15.08843833","GP_ID":"215249112","NORAD_CAT_ID":"51775","BSTAR":"0.00002286400000","MEAN_MOTION_DDOT":"0.0000000000000","ELEMENT_SET_NO":"999","OBJECT_ID":"2022-017H"},{"EPHEMERIS_TYPE":"0","SEMIMAJOR_AXIS":"6917.820","RA_OF_ASC_NODE":"150.3660","MEAN_ANOMALY":"306.8590","FILE":"3615679","PERIOD":"95.436","CLASSIFICATION_TYPE":"U","ECCENTRICITY":"0.00015290","APOAPSIS":"540.743","EPOCH":"2022-10-15T15:35:51.385920","SITE":"AFWTR","MEAN_MOTION_DOT":"-0.00001123","ARG_OF_PERICENTER":"53.2542","INCLINATION":"53.2190","MEAN_ELEMENT_THEORY":"SGP4","MEAN_MOTION":"15.08859628","GP_ID":"215247860","NORAD_CAT_ID":"51776","BSTAR":"-0.00005247200000","MEAN_MOTION_DDOT":"0.0000000000000","OBJECT_ID":"2022-017J","ELEMENT_SET_NO":"999","DECAY_DATE":null,"REV_AT_EPOCH":"3521","TLE_LINE2":"2 51776  53.2190 150.3660 0001529  53.2542 306.8590 15.08859628 35211","REF_FRAME":"TEME","OBJECT_NAME":"STARLINK-3608","TLE_LINE1":"1 51776U 22017J   22288.64990030 -.00001123  00000-0 -52472-4 0  9994","TIME_SYSTEM":"UTC","PERIAPSIS":"538.628","COUNTRY_CODE":"US","OBJECT_TYPE":"PAYLOAD","LAUNCH_DATE":"2022-02-25","RCS_SIZE":"LARGE","CENTER_NAME":"EARTH"},{"RCS_SIZE":"LARGE","CENTER_NAME":"EARTH","LAUNCH_DATE":"2022-02-25","OBJECT_TYPE":"PAYLOAD","COUNTRY_CODE":"US","TIME_SYSTEM":"UTC","PERIAPSIS":"538.537","TLE_LINE1":"1 51777U 22017K   22288.72348704  .00000725  00000-0  63633-4 0  9995","OBJECT_NAME":"STARLINK-3625","REV_AT_EPOCH":"3525","DECAY_DATE":null,"TLE_LINE2":"2 51777  53.2170 150.0362 0001703  46.8310 313.2824 15.08849790 35256","REF_FRAME":"TEME","ELEMENT_SET_NO":"999","OBJECT_ID":"2022-017K","NORAD_CAT_ID":"51777","BSTAR":"0.00006363300000","MEAN_MOTION_DDOT":"0.0000000000000","MEAN_MOTION":"15.08849790","GP_ID":"215248110","MEAN_ELEMENT_THEORY":"SGP4","INCLINATION":"53.2170","MEAN_MOTION_DOT":"0.00000725","ARG_OF_PERICENTER":"46.8310","SITE":"AFWTR","EPOCH":"2022-10-15T17:21:49.280256","APOAPSIS":"540.894","PERIOD":"95.437","CLASSIFICATION_TYPE":"U","ECCENTRICITY":"0.00017030","FILE":"3615679","RA_OF_ASC_NODE":"150.0362","MEAN_ANOMALY":"313.2824","EPHEMERIS_TYPE":"0","SEMIMAJOR_AXIS":"6917.850"},{"REF_FRAME":"TEME","TLE_LINE2":"2 51778  53.2152 139.6716 0001812  54.6623 305.4538 15.08848807 35228","DECAY_DATE":null,"REV_AT_EPOCH":"3522","TLE_LINE1":"1 51778U 22017L   22288.80264718  .00000250  00000-0  33812-4 0  9996","OBJECT_NAME":"STARLINK-3615","PERIAPSIS":"538.465","TIME_SYSTEM":"UTC","COUNTRY_CODE":"US","OBJECT_TYPE":"PAYLOAD","LAUNCH_DATE":"2022-02-25","RCS_SIZE":"LARGE","CENTER_NAME":"EARTH","INCLINATION":"53.2152","MEAN_ELEMENT_THEORY":"SGP4","GP_ID":"215249362","MEAN_MOTION":"15.08848807","BSTAR":"0.00003381200000","MEAN_MOTION_DDOT":"0.0000000000000","NORAD_CAT_ID":"51778","OBJECT_ID":"2022-017L","ELEMENT_SET_NO":"999","EPOCH":"2022-10-15T19:15:48.716352","SITE":"AFWTR","ARG_OF_PERICENTER":"54.6623","MEAN_MOTION_DOT":"0.00000250","SEMIMAJOR_AXIS":"6917.853","EPHEMERIS_TYPE":"0","MEAN_ANOMALY":"305.4538","RA_OF_ASC_NODE":"139.6716","FILE":"3615679","PERIOD":"95.437","CLASSIFICATION_TYPE":"U","ECCENTRICITY":"0.00018120","APOAPSIS":"540.972"},{"SEMIMAJOR_AXIS":"6917.845","EPHEMERIS_TYPE":"0","FILE":"3615679","MEAN_ANOMALY":"311.8670","RA_OF_ASC_NODE":"150.6849","APOAPSIS":"541.034","PERIOD":"95.437","CLASSIFICATION_TYPE":"U","ECCENTRICITY":"0.00019140","EPOCH":"2022-10-15T13:55:09.226560","SITE":"AFWTR","ARG_OF_PERICENTER":"48.2485","MEAN_MOTION_DOT":"0.00001159","MEAN_ELEMENT_THEORY":"SGP4","INCLINATION":"53.2189","GP_ID":"215249613","MEAN_MOTION":"15.08851443","BSTAR":"0.00009086900000","MEAN_MOTION_DDOT":"0.0000000000000","NORAD_CAT_ID":"51779","ELEMENT_SET_NO":"999","OBJECT_ID":"2022-017M","TLE_LINE1":"1 51779U 22017M   22288.57996790  .00001159  00000-0  90869-4 0  9997","OBJECT_NAME":"STARLINK-3611","REF_FRAME":"TEME","TLE_LINE2":"2 51779  53.2189 150.6849 0001914  48.2485 311.8670 15.08851443 35203","DECAY_DATE":null,"REV_AT_EPOCH":"3520","COUNTRY_CODE":"US","PERIAPSIS":"538.386","TIME_SYSTEM":"UTC","LAUNCH_DATE":"2022-02-25","OBJECT_TYPE":"PAYLOAD","RCS_SIZE":"LARGE","CENTER_NAME":"EARTH"},{"APOAPSIS":"540.635","PERIOD":"95.440","CLASSIFICATION_TYPE":"U","ECCENTRICITY":"0.00011190","EPHEMERIS_TYPE":"0","SEMIMAJOR_AXIS":"6917.996","FILE":"3615328","RA_OF_ASC_NODE":"149.8438","MEAN_ANOMALY":"282.5989","SITE":"AFWTR","MEAN_MOTION_DOT":"0.00009517","ARG_OF_PERICENTER":"77.5128","EPOCH":"2022-10-15T18:26:48.958944","NORAD_CAT_ID":"51780","MEAN_MOTION_DDOT":"0.0000000000000","BSTAR":"0.00061587000000","ELEMENT_SET_NO":"999","OBJECT_ID":"2022-017N","MEAN_ELEMENT_THEORY":"SGP4","INCLINATION":"53.2167","MEAN_MOTION":"15.08802321","GP_ID":"215218544","LAUNCH_DATE":"2022-02-25","OBJECT_TYPE":"PAYLOAD","CENTER_NAME":"EARTH","RCS_SIZE":"LARGE","TLE_LINE1":"1 51780U 22017N   22288.76862221  .00009517  00000-0  61587-3 0  9991","OBJECT_NAME":"STARLINK-3617","DECAY_DATE":null,"REV_AT_EPOCH":"3677","TLE_LINE2":"2 51780  53.2167 149.8438 0001119  77.5128 282.5989 15.08802321 36772","REF_FRAME":"TEME","COUNTRY_CODE":"US","TIME_SYSTEM":"UTC","PERIAPSIS":"539.086"},{"FILE":"3614916","RA_OF_ASC_NODE":"153.3771","MEAN_ANOMALY":"312.0139","EPHEMERIS_TYPE":"0","SEMIMAJOR_AXIS":"6917.877","APOAPSIS":"541.035","CLASSIFICATION_TYPE":"U","PERIOD":"95.437","ECCENTRICITY":"0.00018690","EPOCH":"2022-10-14T23:31:23.630304","MEAN_MOTION_DOT":"0.00000504","ARG_OF_PERICENTER":"48.1012","SITE":"AFWTR","MEAN_MOTION":"15.08841050","GP_ID":"215207678","MEAN_ELEMENT_THEORY":"SGP4","INCLINATION":"53.2174","ELEMENT_SET_NO":"999","OBJECT_ID":"2022-017P","NORAD_CAT_ID":"51781","MEAN_MOTION_DDOT":"0.0000000000000","BSTAR":"0.00004978400000","COUNTRY_CODE":"US","TIME_SYSTEM":"UTC","PERIAPSIS":"538.449","TLE_LINE1":"1 51781U 22017P   22287.98013461  .00000504  00000-0  49784-4 0  9992","OBJECT_NAME":"STARLINK-3580","REV_AT_EPOCH":"3496","DECAY_DATE":null,"REF_FRAME":"TEME","TLE_LINE2":"2 51781  53.2174 153.3771 0001869  48.1012 312.0139 15.08841050 34966","RCS_SIZE":"LARGE","CENTER_NAME":"EARTH","LAUNCH_DATE":"2022-02-25","OBJECT_TYPE":"PAYLOAD"}];
